[{"OBJECT_NAME":"INNOCUBE (TUSAT-31)","OBJECT_ID":"2025-009H","EPOCH":"2026-03-09T17:29:29.528736","MEAN_MOTION":15.24956202,"ECCENTRICITY":0.00051092,"INCLINATION":97.3947,"RA_OF_ASC_NODE":149.8573,"ARG_OF_PERICENTER":335.5214,"MEAN_ANOMALY":24.578,"EPHEMERIS_TYPE":0,"CLASSIFICATION_TYPE":"U","NORAD_CAT_ID":62616,"ELEMENT_SET_NO":999,"REV_AT_EPOCH":6365,"BSTAR":0.00037462408,"MEAN_MOTION_DOT":9.271e-5,"MEAN_MOTION_DDOT":0},{"OBJECT_NAME":"ELECTRON KICK STAGE R\/B","OBJECT_ID":"2022-147B","EPOCH":"2026-03-09T22:28:20.187264","MEAN_MOTION":15.28920172,"ECCENTRICITY":0.00095089,"INCLINATION":97.642,"RA_OF_ASC_NODE":85.1135,"ARG_OF_PERICENTER":110.4683,"MEAN_ANOMALY":249.7578,"EPHEMERIS_TYPE":0,"CLASSIFICATION_TYPE":"U","NORAD_CAT_ID":54228,"ELEMENT_SET_NO":999,"REV_AT_EPOCH":18390,"BSTAR":0.00083201931,"MEAN_MOTION_DOT":0.00023374,"MEAN_MOTION_DDOT":0}]
